[{"OBJECT_NAME":"STARLINK-3346","OBJECT_ID":"2022-001U","EPOCH":"2026-03-09T14:12:56.300256","MEAN_MOTION":15.08837433,"ECCENTRICITY":0.0001325,"INCLINATION":53.2177,"RA_OF_ASC_NODE":169.4427,"ARG_OF_PERICENTER":91.928,"MEAN_ANOMALY":268.1864,"EPHEMERIS_TYPE":0,"CLASSIFICATION_TYPE":"U","NORAD_CAT_ID":50821,"ELEMENT_SET_NO":999,"REV_AT_EPOCH":23039,"BSTAR":4.058e-5,"MEAN_MOTION_DOT":3.58e-6,"MEAN_MOTION_DDOT":0},{"OBJECT_NAME":"THOR ALTAIR DEB","OBJECT_ID":"1966-026D","EPOCH":"2026-03-09T21:08:08.495232","MEAN_MOTION":14.80090516,"ECCENTRICITY":0.01273304,"INCLINATION":98.9687,"RA_OF_ASC_NODE":49.0062,"ARG_OF_PERICENTER":303.87,"MEAN_ANOMALY":55.0446,"EPHEMERIS_TYPE":0,"CLASSIFICATION_TYPE":"U","NORAD_CAT_ID":2177,"ELEMENT_SET_NO":999,"REV_AT_EPOCH":14815,"BSTAR":0.00075855056,"MEAN_MOTION_DOT":6.533e-5,"MEAN_MOTION_DDOT":0}]
